{
  "type": "FeatureCollection",
  "features": [
    {
      "type": "Feature",
      "properties": {
        "norad_id": 29904,
        "name": "FENGYUN 1C DEB",
        "group": "fengyun-1c-debris",
        "lat": 64.35472634363711,
        "lon": -145.97804590884604,
        "alt_km": 825.9534697861227,
        "timestamp": "2025-12-03T08:58:46.273576+00:00",
        "meta_object_name": "FENGYUN 1C DEB",
        "meta_object_id": "1999-025HA",
        "meta_epoch": "2025-12-03T01:48:35.081856",
        "meta_mean_motion": 14.44417836,
        "meta_eccentricity": 0.0208352,
        "meta_inclination": 99.0432,
        "meta_ra_of_asc_node": 14.3303,
        "meta_arg_of_pericenter": 347.4616,
        "meta_mean_anomaly": 12.1434,
        "meta_ephemeris_type": 0,
        "meta_classification_type": "U",
        "meta_norad_cat_id": 29904,
        "meta_element_set_no": 999,
        "meta_rev_at_epoch": 98924,
        "meta_bstar": 0.00055336,
        "meta_mean_motion_dot": 2.428e-05,
        "meta_mean_motion_ddot": 0,
        "tle_line1": "1 29904U 99025HA  25337.07540604  .00002428  00000+0  55336-3 0  9995",
        "tle_line2": "2 29904  99.0432  14.3303 0208352 347.4616  12.1434 14.44417836989247"
      },
      "geometry": {
        "type": "Point",
        "coordinates": [
          -145.97804590884604,
          64.35472634363711
        ]
      }
    },
    {
      "type": "Feature",
      "properties": {
        "norad_id": 29906,
        "name": "FENGYUN 1C DEB",
        "group": "fengyun-1c-debris",
        "lat": -36.76094891183962,
        "lon": -106.15456758947127,
        "alt_km": 713.789904430907,
        "timestamp": "2025-12-03T08:58:46.273586+00:00",
        "meta_object_name": "FENGYUN 1C DEB",
        "meta_object_id": "1999-025HC",
        "meta_epoch": "2025-12-02T12:05:56.229792",
        "meta_mean_motion": 14.49305909,
        "meta_eccentricity": 0.00376495,
        "meta_inclination": 98.7062,
        "meta_ra_of_asc_node": 79.5209,
        "meta_arg_of_pericenter": 179.2565,
        "meta_mean_anomaly": 180.869,
        "meta_ephemeris_type": 0,
        "meta_classification_type": "U",
        "meta_norad_cat_id": 29906,
        "meta_element_set_no": 999,
        "meta_rev_at_epoch": 98009,
        "meta_bstar": 0.0033524433,
        "meta_mean_motion_dot": 0.00012885,
        "meta_mean_motion_ddot": 0,
        "tle_line1": "1 29906U 99025HC  25336.50412303  .00012885  00000+0  33524-2 0  9990",
        "tle_line2": "2 29906  98.7062  79.5209 0037649 179.2565 180.8690 14.49305909980098"
      },
      "geometry": {
        "type": "Point",
        "coordinates": [
          -106.15456758947127,
          -36.76094891183962
        ]
      }
    },
    {
      "type": "Feature",
      "properties": {
        "norad_id": 29907,
        "name": "FENGYUN 1C DEB",
        "group": "fengyun-1c-debris",
        "lat": -17.64775680382638,
        "lon": -139.02173323298192,
        "alt_km": 845.9672471914137,
        "timestamp": "2025-12-03T08:58:46.273596+00:00",
        "meta_object_name": "FENGYUN 1C DEB",
        "meta_object_id": "1999-025HD",
        "meta_epoch": "2025-12-03T04:41:41.630208",
        "meta_mean_motion": 14.11546457,
        "meta_eccentricity": 0.008322,
        "meta_inclination": 99.1129,
        "meta_ra_of_asc_node": 43.724,
        "meta_arg_of_pericenter": 276.27,
        "meta_mean_anomaly": 95.7367,
        "meta_ephemeris_type": 0,
        "meta_classification_type": "U",
        "meta_norad_cat_id": 29907,
        "meta_element_set_no": 999,
        "meta_rev_at_epoch": 96464,
        "meta_bstar": 0.0022155,
        "meta_mean_motion_dot": 4.109e-05,
        "meta_mean_motion_ddot": 0,
        "tle_line1": "1 29907U 99025HD  25337.19562072  .00004109  00000+0  22155-2 0  9994",
        "tle_line2": "2 29907  99.1129  43.7240 0083220 276.2700  95.7367 14.11546457964643"
      },
      "geometry": {
        "type": "Point",
        "coordinates": [
          -139.02173323298192,
          -17.64775680382638
        ]
      }
    },
    {
      "type": "Feature",
      "properties": {
        "norad_id": 29909,
        "name": "FENGYUN 1C DEB",
        "group": "fengyun-1c-debris",
        "lat": 69.88220885298541,
        "lon": -74.62170586177004,
        "alt_km": 690.5509867722913,
        "timestamp": "2025-12-03T08:58:46.273607+00:00",
        "meta_object_name": "FENGYUN 1C DEB",
        "meta_object_id": "1999-025HF",
        "meta_epoch": "2025-12-02T06:19:26.633280",
        "meta_mean_motion": 14.54816606,
        "meta_eccentricity": 0.0038712,
        "meta_inclination": 98.6352,
        "meta_ra_of_asc_node": 79.721,
        "meta_arg_of_pericenter": 48.5849,
        "meta_mean_anomaly": 5.7488,
        "meta_ephemeris_type": 0,
        "meta_classification_type": "U",
        "meta_norad_cat_id": 29909,
        "meta_element_set_no": 999,
        "meta_rev_at_epoch": 98253,
        "meta_bstar": 0.0024963,
        "meta_mean_motion_dot": 0.00010781,
        "meta_mean_motion_ddot": 0,
        "tle_line1": "1 29909U 99025HF  25336.26350270  .00010781  00000+0  24963-2 0  9990",
        "tle_line2": "2 29909  98.6352  79.7210 0038712  48.5849   5.7488 14.54816606982539"
      },
      "geometry": {
        "type": "Point",
        "coordinates": [
          -74.62170586177004,
          69.88220885298541
        ]
      }
    },
    {
      "type": "Feature",
      "properties": {
        "norad_id": 29911,
        "name": "FENGYUN 1C DEB",
        "group": "fengyun-1c-debris",
        "lat": 30.222007100670186,
        "lon": 15.518861537921133,
        "alt_km": 844.0282282514945,
        "timestamp": "2025-12-03T08:58:46.273617+00:00",
        "meta_object_name": "FENGYUN 1C DEB",
        "meta_object_id": "1999-025HH",
        "meta_epoch": "2025-12-03T02:19:18.234048",
        "meta_mean_motion": 14.18807175,
        "meta_eccentricity": 0.0027202,
        "meta_inclination": 98.7166,
        "meta_ra_of_asc_node": 20.3735,
        "meta_arg_of_pericenter": 177.6483,
        "meta_mean_anomaly": 237.1138,
        "meta_ephemeris_type": 0,
        "meta_classification_type": "U",
        "meta_norad_cat_id": 29911,
        "meta_element_set_no": 999,
        "meta_rev_at_epoch": 97294,
        "meta_bstar": 0.00089933,
        "meta_mean_motion_dot": 1.834e-05,
        "meta_mean_motion_ddot": 0,
        "tle_line1": "1 29911U 99025HH  25337.09673882  .00001834  00000+0  89933-3 0  9990",
        "tle_line2": "2 29911  98.7166  20.3735 0027202 177.6483 237.1138 14.18807175972948"
      },
      "geometry": {
        "type": "Point",
        "coordinates": [
          15.518861537921133,
          30.222007100670186
        ]
      }
    },
    {
      "type": "Feature",
      "properties": {
        "norad_id": 29912,
        "name": "FENGYUN 1C DEB",
        "group": "fengyun-1c-debris",
        "lat": -76.19818976306523,
        "lon": -144.17823142305662,
        "alt_km": 727.3044223318057,
        "timestamp": "2025-12-03T08:58:46.273627+00:00",
        "meta_object_name": "FENGYUN 1C DEB",
        "meta_object_id": "1999-025HJ",
        "meta_epoch": "2025-12-02T05:26:51.115200",
        "meta_mean_motion": 14.4271984,
        "meta_eccentricity": 0.0042454,
        "meta_inclination": 98.7383,
        "meta_ra_of_asc_node": 73.4094,
        "meta_arg_of_pericenter": 249.3711,
        "meta_mean_anomaly": 175.0122,
        "meta_ephemeris_type": 0,
        "meta_classification_type": "U",
        "meta_norad_cat_id": 29912,
        "meta_element_set_no": 999,
        "meta_rev_at_epoch": 97887,
        "meta_bstar": 0.0027923,
        "meta_mean_motion_dot": 9.362e-05,
        "meta_mean_motion_ddot": 0,
        "tle_line1": "1 29912U 99025HJ  25336.22698050  .00009362  00000+0  27923-2 0  9993",
        "tle_line2": "2 29912  98.7383  73.4094 0042454 249.3711 175.0122 14.42719840978873"
      },
      "geometry": {
        "type": "Point",
        "coordinates": [
          -144.17823142305662,
          -76.19818976306523
        ]
      }
    },
    {
      "type": "Feature",
      "properties": {
        "norad_id": 29913,
        "name": "FENGYUN 1C DEB",
        "group": "fengyun-1c-debris",
        "lat": 54.891913506369235,
        "lon": 169.19378319132346,
        "alt_km": 907.8899752014668,
        "timestamp": "2025-12-03T08:58:46.273637+00:00",
        "meta_object_name": "FENGYUN 1C DEB",
        "meta_object_id": "1999-025HK",
        "meta_epoch": "2025-12-02T22:26:40.677792",
        "meta_mean_motion": 14.07363941,
        "meta_eccentricity": 0.0062056,
        "meta_inclination": 98.7875,
        "meta_ra_of_asc_node": 336.0565,
        "meta_arg_of_pericenter": 299.4721,
        "meta_mean_anomaly": 121.9392,
        "meta_ephemeris_type": 0,
        "meta_classification_type": "U",
        "meta_norad_cat_id": 29913,
        "meta_element_set_no": 999,
        "meta_rev_at_epoch": 96827,
        "meta_bstar": 0.00051328,
        "meta_mean_motion_dot": 8.34e-06,
        "meta_mean_motion_ddot": 0,
        "tle_line1": "1 29913U 99025HK  25336.93519303  .00000834  00000+0  51328-3 0  9997",
        "tle_line2": "2 29913  98.7875 336.0565 0062056 299.4721 121.9392 14.07363941968278"
      },
      "geometry": {
        "type": "Point",
        "coordinates": [
          169.19378319132346,
          54.891913506369235
        ]
      }
    }
  ]
}